ONEWEB-0094             
1 45450U 20020AC  25066.80538531  .00000058  00000+0  11585-3 0  9999
2 45450  87.9014  98.7462 0001940  97.1319 263.0033 13.17648207244892
ONEWEB-0087             
1 45451U 20020AD  25066.40020218 -.00000212  00000+0 -63271-3 0  9997
2 45451  87.8828 114.0719 0002122 105.0102 255.1261 13.11419527241408
ONEWEB-0082             
1 45452U 20020AE  25066.39694705 -.00000607  00000+0 -17481-2 0  9993
2 45452  87.8835 114.0894 0002115  98.1703 261.9665 13.11417782241495
ONEWEB-0050             
1 45453U 20020AF  25066.22113540  .00005088  00000+0  47594-3 0  9994
2 45453  88.0028 321.3534 0002276 144.7243 215.4139 14.93944265270834
ONEWEB-0034             
1 45454U 20020AG  25066.41901325  .00000438  00000+0  11995-2 0  9991
2 45454  87.8835 114.1044 0001965  98.2007 261.9344 13.11418260241413
ONEWEB-0060             
1 45455U 20020AH  25066.69041865 -.00000518  00000+0 -14973-2 0  9996
2 45455  87.8837 114.0745 0001802 100.6906 259.4425 13.11415973241419
ONEWEB-0086             
1 45456U 20020AJ  25066.36814165  .00000018  00000+0  14931-4 0  9991
2 45456  87.8831 114.1138 0002260 106.4623 253.6753 13.11415037241422
ONEWEB-0088             
1 45457U 20020AK  25066.65129744  .00000530  00000+0  14608-2 0  9994
2 45457  87.8826 114.0112 0001969 103.9091 256.2256 13.11417600241407
